{
  "type": "FeatureCollection",
  "features": [
    {
      "type": "Feature",
      "properties": {
        "norad_id": 33844,
        "name": "COSMOS 2251 DEB",
        "group": "cosmos-2251-debris",
        "lat": 56.205006760584695,
        "lon": -138.1741756078841,
        "alt_km": 744.023570143303,
        "timestamp": "2025-12-04T21:36:16.264638+00:00",
        "meta_object_name": "COSMOS 2251 DEB",
        "meta_object_id": "1993-036CM",
        "meta_epoch": "2025-12-04T12:46:20.517024",
        "meta_mean_motion": 14.33689561,
        "meta_eccentricity": 0.00471446,
        "meta_inclination": 74.0671,
        "meta_ra_of_asc_node": 67.7619,
        "meta_arg_of_pericenter": 92.3119,
        "meta_mean_anomaly": 288.9554,
        "meta_ephemeris_type": 0,
        "meta_classification_type": "U",
        "meta_norad_cat_id": 33844,
        "meta_element_set_no": 999,
        "meta_rev_at_epoch": 87608,
        "meta_bstar": 0.00080087963,
        "meta_mean_motion_dot": 2.225e-05,
        "meta_mean_motion_ddot": 0,
        "tle_line1": "1 33844U 93036CM  25338.53218191  .00002225  00000+0  80088-3 0  9991",
        "tle_line2": "2 33844  74.0671  67.7619 0047144  92.3119 288.9554 14.33689561876086"
      },
      "geometry": {
        "type": "Point",
        "coordinates": [
          -138.1741756078841,
          56.205006760584695
        ]
      }
    },
    {
      "type": "Feature",
      "properties": {
        "norad_id": 33848,
        "name": "COSMOS 2251 DEB",
        "group": "cosmos-2251-debris",
        "lat": 7.3500008937093355,
        "lon": 14.345900327679754,
        "alt_km": 733.6729112678122,
        "timestamp": "2025-12-04T21:36:16.264648+00:00",
        "meta_object_name": "COSMOS 2251 DEB",
        "meta_object_id": "1993-036CR",
        "meta_epoch": "2025-12-04T12:09:32.617728",
        "meta_mean_motion": 14.43980152,
        "meta_eccentricity": 0.00409228,
        "meta_inclination": 74.0321,
        "meta_ra_of_asc_node": 12.9611,
        "meta_arg_of_pericenter": 71.6593,
        "meta_mean_anomaly": 51.485,
        "meta_ephemeris_type": 0,
        "meta_classification_type": "U",
        "meta_norad_cat_id": 33848,
        "meta_element_set_no": 999,
        "meta_rev_at_epoch": 87712,
        "meta_bstar": 0.0021768436,
        "meta_mean_motion_dot": 7.495e-05,
        "meta_mean_motion_ddot": 0,
        "tle_line1": "1 33848U 93036CR  25338.50662752  .00007495  00000+0  21768-2 0  9991",
        "tle_line2": "2 33848  74.0321  12.9611 0040922  71.6593  51.4850 14.43980152877128"
      },
      "geometry": {
        "type": "Point",
        "coordinates": [
          14.345900327679754,
          7.3500008937093355
        ]
      }
    },
    {
      "type": "Feature",
      "properties": {
        "norad_id": 33892,
        "name": "COSMOS 2251 DEB",
        "group": "cosmos-2251-debris",
        "lat": 22.634495944028934,
        "lon": -70.602689381782,
        "alt_km": 732.5052685679302,
        "timestamp": "2025-12-04T21:36:16.264658+00:00",
        "meta_object_name": "COSMOS 2251 DEB",
        "meta_object_id": "1993-036CV",
        "meta_epoch": "2025-12-04T11:01:31.952640",
        "meta_mean_motion": 14.23283133,
        "meta_eccentricity": 0.01134819,
        "meta_inclination": 73.8021,
        "meta_ra_of_asc_node": 117.1625,
        "meta_arg_of_pericenter": 149.9576,
        "meta_mean_anomaly": 268.4998,
        "meta_ephemeris_type": 0,
        "meta_classification_type": "U",
        "meta_norad_cat_id": 33892,
        "meta_element_set_no": 999,
        "meta_rev_at_epoch": 86837,
        "meta_bstar": 0.0020754659,
        "meta_mean_motion_dot": 4.999e-05,
        "meta_mean_motion_ddot": 0,
        "tle_line1": "1 33892U 93036CV  25338.45939760  .00004999  00000+0  20755-2 0  9991",
        "tle_line2": "2 33892  73.8021 117.1625 0113481 149.9576 268.4998 14.23283133868378"
      },
      "geometry": {
        "type": "Point",
        "coordinates": [
          -70.602689381782,
          22.634495944028934
        ]
      }
    },
    {
      "type": "Feature",
      "properties": {
        "norad_id": 33894,
        "name": "COSMOS 2251 DEB",
        "group": "cosmos-2251-debris",
        "lat": 62.96708682091138,
        "lon": 36.030663876611456,
        "alt_km": 1530.4693351289643,
        "timestamp": "2025-12-04T21:36:16.264668+00:00",
        "meta_object_name": "COSMOS 2251 DEB",
        "meta_object_id": "1993-036CX",
        "meta_epoch": "2025-12-03T01:38:16.679040",
        "meta_mean_motion": 13.21251697,
        "meta_eccentricity": 0.05793433,
        "meta_inclination": 73.7665,
        "meta_ra_of_asc_node": 4.0465,
        "meta_arg_of_pericenter": 284.7091,
        "meta_mean_anomaly": 69.0497,
        "meta_ephemeris_type": 0,
        "meta_classification_type": "U",
        "meta_norad_cat_id": 33894,
        "meta_element_set_no": 999,
        "meta_rev_at_epoch": 80580,
        "meta_bstar": 0.0024833384,
        "meta_mean_motion_dot": 2.447e-05,
        "meta_mean_motion_ddot": 0,
        "tle_line1": "1 33894U 93036CX  25337.06824860  .00002447  00000+0  24833-2 0  9990",
        "tle_line2": "2 33894  73.7665   4.0465 0579343 284.7091  69.0497 13.21251697805807"
      },
      "geometry": {
        "type": "Point",
        "coordinates": [
          36.030663876611456,
          62.96708682091138
        ]
      }
    },
    {
      "type": "Feature",
      "properties": {
        "norad_id": 33896,
        "name": "COSMOS 2251 DEB",
        "group": "cosmos-2251-debris",
        "lat": -13.469399835286156,
        "lon": 166.9134203476197,
        "alt_km": 742.0312391031111,
        "timestamp": "2025-12-04T21:36:16.264678+00:00",
        "meta_object_name": "COSMOS 2251 DEB",
        "meta_object_id": "1993-036CZ",
        "meta_epoch": "2025-12-04T15:11:11.195808",
        "meta_mean_motion": 14.19008504,
        "meta_eccentricity": 0.01260685,
        "meta_inclination": 73.766,
        "meta_ra_of_asc_node": 171.4003,
        "meta_arg_of_pericenter": 348.3955,
        "meta_mean_anomaly": 72.1567,
        "meta_ephemeris_type": 0,
        "meta_classification_type": "U",
        "meta_norad_cat_id": 33896,
        "meta_element_set_no": 999,
        "meta_rev_at_epoch": 86625,
        "meta_bstar": 0.00087447692,
        "meta_mean_motion_dot": 1.948e-05,
        "meta_mean_motion_ddot": 0,
        "tle_line1": "1 33896U 93036CZ  25338.63276847  .00001948  00000+0  87448-3 0  9999",
        "tle_line2": "2 33896  73.7660 171.4003 0126068 348.3955  72.1567 14.19008504866253"
      },
      "geometry": {
        "type": "Point",
        "coordinates": [
          166.9134203476197,
          -13.469399835286156
        ]
      }
    },
    {
      "type": "Feature",
      "properties": {
        "norad_id": 33899,
        "name": "COSMOS 2251 DEB",
        "group": "cosmos-2251-debris",
        "lat": -71.05076374517638,
        "lon": -22.916681221297907,
        "alt_km": 699.3443332446523,
        "timestamp": "2025-12-04T21:36:16.264689+00:00",
        "meta_object_name": "COSMOS 2251 DEB",
        "meta_object_id": "1993-036DC",
        "meta_epoch": "2025-12-04T01:14:55.253760",
        "meta_mean_motion": 14.61037562,
        "meta_eccentricity": 0.0057677,
        "meta_inclination": 74.0533,
        "meta_ra_of_asc_node": 102.3156,
        "meta_arg_of_pericenter": 167.407,
        "meta_mean_anomaly": 312.2659,
        "meta_ephemeris_type": 0,
        "meta_classification_type": "U",
        "meta_norad_cat_id": 33899,
        "meta_element_set_no": 999,
        "meta_rev_at_epoch": 88712,
        "meta_bstar": 0.002362534,
        "meta_mean_motion_dot": 0.00011865,
        "meta_mean_motion_ddot": 0,
        "tle_line1": "1 33899U 93036DC  25338.05202840  .00011865  00000+0  23625-2 0  9995",
        "tle_line2": "2 33899  74.0533 102.3156 0057677 167.4070 312.2659 14.61037562887120"
      },
      "geometry": {
        "type": "Point",
        "coordinates": [
          -22.916681221297907,
          -71.05076374517638
        ]
      }
    },
    {
      "type": "Feature",
      "properties": {
        "norad_id": 33900,
        "name": "COSMOS 2251 DEB",
        "group": "cosmos-2251-debris",
        "lat": 12.443339931859095,
        "lon": 18.42566899816206,
        "alt_km": 730.1010984053382,
        "timestamp": "2025-12-04T21:36:16.264699+00:00",
        "meta_object_name": "COSMOS 2251 DEB",
        "meta_object_id": "1993-036DD",
        "meta_epoch": "2025-12-04T14:01:23.512224",
        "meta_mean_motion": 14.58301567,
        "meta_eccentricity": 0.0047309,
        "meta_inclination": 74.0196,
        "meta_ra_of_asc_node": 15.4018,
        "meta_arg_of_pericenter": 169.7495,
        "meta_mean_anomaly": 345.836,
        "meta_ephemeris_type": 0,
        "meta_classification_type": "U",
        "meta_norad_cat_id": 33900,
        "meta_element_set_no": 999,
        "meta_rev_at_epoch": 88917,
        "meta_bstar": 0.00085944891,
        "meta_mean_motion_dot": 4.008e-05,
        "meta_mean_motion_ddot": 0,
        "tle_line1": "1 33900U 93036DD  25338.58429991  .00004008  00000+0  85945-3 0  9999",
        "tle_line2": "2 33900  74.0196  15.4018 0047309 169.7495 345.8360 14.58301567889179"
      },
      "geometry": {
        "type": "Point",
        "coordinates": [
          18.42566899816206,
          12.443339931859095
        ]
      }
    }
  ]
}